{"type": "FeatureCollection", "features": [ {"type": "Feature", "properties": {"norad_id": 32171, "name": "FENGYUN 1C DEB", "group": "fengyun-1c-debris", "lat": -60.82373905805275, "lon": -74.13127697406324, "alt_km": 814.7271729305976, "timestamp": "2025-12-26T23:26:42.413248+00:00", "meta": {"OBJECT_NAME": "FENGYUN 1C DEB", "OBJECT_ID": "1999-025CTR", "EPOCH": "2025-12-19T23:42:54.324864", "MEAN_MOTION": 13.42626137, "ECCENTRICITY": 0.04889608, "INCLINATION": 102.8047, "RA_OF_ASC_NODE": 252.9563, "ARG_OF_PERICENTER": 350.4446, "MEAN_ANOMALY": 24.1541, "EPHEMERIS_TYPE": 0, "CLASSIFICATION_TYPE": "U", "NORAD_CAT_ID": 32171, "ELEMENT_SET_NO": 999, "REV_AT_EPOCH": 60713, "BSTAR": 0.0031070162, "MEAN_MOTION_DOT": 3.53e-05, "MEAN_MOTION_DDOT": 0}, "tle": {"line1": "1 32171U 99025CTR 25353.98812876  .00003530  00000+0  31070-2 0  9999", "line2": "2 32171 102.8047 252.9563 0488960 350.4446  24.1541 13.42626137607130"}}, "geometry": {"type": "Point", "coordinates": [-74.13127697406324, -60.82373905805275]}}, {"type": "Feature", "properties": {"norad_id": 32174, "name": "FENGYUN 1C DEB", "group": "fengyun-1c-debris", "lat": 54.06922518653844, "lon": 50.629640424180096, "alt_km": 920.9459581611, "timestamp": "2025-12-26T23:26:42.413257+00:00", "meta": {"OBJECT_NAME": "FENGYUN 1C DEB", "OBJECT_ID": "1999-025CTU", "EPOCH": "2025-12-24T22:03:55.021248", "MEAN_MOTION": 14.1793552, "ECCENTRICITY": 0.0151034, "INCLINATION": 98.5999, "RA_OF_ASC_NODE": 60.6893, "ARG_OF_PERICENTER": 210.8031, "MEAN_ANOMALY": 148.4216, "EPHEMERIS_TYPE": 0, "CLASSIFICATION_TYPE": "U", "NORAD_CAT_ID": 32174, "ELEMENT_SET_NO": 999, "REV_AT_EPOCH": 64278, "BSTAR": 0.00027956, "MEAN_MOTION_DOT": 5.97e-06, "MEAN_MOTION_DDOT": 0}, "tle": {"line1": "1 32174U 99025CTU 25358.91938682  .00000597  00000+0  27956-3 0  9993", "line2": "2 32174  98.5999  60.6893 0151034 210.8031 148.4216 14.17935520642789"}}, "geometry": {"type": "Point", "coordinates": [50.629640424180096, 54.06922518653844]}}, {"type": "Feature", "properties": {"norad_id": 32175, "name": "FENGYUN 1C DEB", "group": "fengyun-1c-debris", "lat": -22.454251126459038, "lon": 165.2421988881474, "alt_km": 898.6980445351282, "timestamp": "2025-12-26T23:26:42.413268+00:00", "meta": {"OBJECT_NAME": "FENGYUN 1C DEB", "OBJECT_ID": "1999-025CTV", "EPOCH": "2025-12-23T04:56:33.925344", "MEAN_MOTION": 13.94880841, "ECCENTRICITY": 0.01517458, "INCLINATION": 98.8236, "RA_OF_ASC_NODE": 345.3153, "ARG_OF_PERICENTER": 294.464, "MEAN_ANOMALY": 64.0759, "EPHEMERIS_TYPE": 0, "CLASSIFICATION_TYPE": "U", "NORAD_CAT_ID": 32175, "ELEMENT_SET_NO": 999, "REV_AT_EPOCH": 59986, "BSTAR": 0.0025272856, "MEAN_MOTION_DOT": 3.694e-05, "MEAN_MOTION_DDOT": 0}, "tle": {"line1": "1 32175U 99025CTV 25357.20594821  .00003694  00000+0  25273-2 0  9998", "line2": "2 32175  98.8236 345.3153 0151745 294.4640  64.0759 13.94880841599866"}}, "geometry": {"type": "Point", "coordinates": [165.2421988881474, -22.454251126459038]}}, {"type": "Feature", "properties": {"norad_id": 32177, "name": "FENGYUN 1C DEB", "group": "fengyun-1c-debris", "lat": -62.195097236144186, "lon": 173.88935085395335, "alt_km": 729.3185468379961, "timestamp": "2025-12-26T23:26:42.413277+00:00", "meta": {"OBJECT_NAME": "FENGYUN 1C DEB", "OBJECT_ID": "1999-025CTX", "EPOCH": "2025-12-24T20:51:42.424128", "MEAN_MOTION": 14.56358491, "ECCENTRICITY": 0.0051413, "INCLINATION": 99.0441, "RA_OF_ASC_NODE": 9.1854, "ARG_OF_PERICENTER": 8.5544, "MEAN_ANOMALY": 351.6516, "EPHEMERIS_TYPE": 0, "CLASSIFICATION_TYPE": "U", "NORAD_CAT_ID": 32177, "ELEMENT_SET_NO": 999, "REV_AT_EPOCH": 71215, "BSTAR": 0.0014896, "MEAN_MOTION_DOT": 6.674e-05, "MEAN_MOTION_DDOT": 0}, "tle": {"line1": "1 32177U 99025CTX 25358.86924102  .00006674  00000+0  14896-2 0  9992", "line2": "2 32177  99.0441   9.1854 0051413   8.5544 351.6516 14.56358491712155"}}, "geometry": {"type": "Point", "coordinates": [173.88935085395335, -62.195097236144186]}}, {"type": "Feature", "properties": {"norad_id": 32178, "name": "FENGYUN 1C DEB", "group": "fengyun-1c-debris", "lat": -14.028224263200704, "lon": -177.79641990125512, "alt_km": 818.9682687465556, "timestamp": "2025-12-26T23:26:42.413286+00:00", "meta": {"OBJECT_NAME": "FENGYUN 1C DEB", "OBJECT_ID": "1999-025CTY", "EPOCH": "2025-12-23T18:35:31.360128", "MEAN_MOTION": 14.23044864, "ECCENTRICITY": 0.00944146, "INCLINATION": 100.3037, "RA_OF_ASC_NODE": 1.0671, "ARG_OF_PERICENTER": 293.0216, "MEAN_ANOMALY": 66.1021, "EPHEMERIS_TYPE": 0, "CLASSIFICATION_TYPE": "U", "NORAD_CAT_ID": 32178, "ELEMENT_SET_NO": 999, "REV_AT_EPOCH": 64160, "BSTAR": 0.0011295374, "MEAN_MOTION_DOT": 2.608e-05, "MEAN_MOTION_DDOT": 0}, "tle": {"line1": "1 32178U 99025CTY 25357.77466852  .00002608  00000+0  11295-2 0  9998", "line2": "2 32178 100.3037   1.0671 0094414 293.0216  66.1021 14.23044864641606"}}, "geometry": {"type": "Point", "coordinates": [-177.79641990125512, -14.028224263200704]}}, {"type": "Feature", "properties": {"norad_id": 32179, "name": "FENGYUN 1C DEB", "group": "fengyun-1c-debris", "lat": -58.584308103524336, "lon": 64.40348026557669, "alt_km": 979.4452508088725, "timestamp": "2025-12-26T23:26:42.413295+00:00", "meta": {"OBJECT_NAME": "FENGYUN 1C DEB", "OBJECT_ID": "1999-025CTZ", "EPOCH": "2025-12-24T22:43:07.178304", "MEAN_MOTION": 14.0369456, "ECCENTRICITY": 0.0145903, "INCLINATION": 98.9083, "RA_OF_ASC_NODE": 47.5341, "ARG_OF_PERICENTER": 155.9615, "MEAN_ANOMALY": 329.6, "EPHEMERIS_TYPE": 0, "CLASSIFICATION_TYPE": "U", "NORAD_CAT_ID": 32179, "ELEMENT_SET_NO": 999, "REV_AT_EPOCH": 65899, "BSTAR": 0.00039781, "MEAN_MOTION_DOT": 6.45e-06, "MEAN_MOTION_DDOT": 0}, "tle": {"line1": "1 32179U 99025CTZ 25358.94661086  .00000645  00000+0  39781-3 0  9995", "line2": "2 32179  98.9083  47.5341 0145903 155.9615 329.6000 14.03694560658994"}}, "geometry": {"type": "Point", "coordinates": [64.40348026557669, -58.584308103524336]}}, {"type": "Feature", "properties": {"norad_id": 32180, "name": "FENGYUN 1C DEB", "group": "fengyun-1c-debris", "lat": -29.110420779220583, "lon": -144.0588547802815, "alt_km": 880.2214509634814, "timestamp": "2025-12-26T23:26:42.413304+00:00", "meta": {"OBJECT_NAME": "FENGYUN 1C DEB", "OBJECT_ID": "1999-025CUA", "EPOCH": "2025-12-26T08:52:06.082176", "MEAN_MOTION": 13.82331443, "ECCENTRICITY": 0.01368176, "INCLINATION": 99.5842, "RA_OF_ASC_NODE": 40.7221, "ARG_OF_PERICENTER": 174.5748, "MEAN_ANOMALY": 253.0708, "EPHEMERIS_TYPE": 0, "CLASSIFICATION_TYPE": "U", "NORAD_CAT_ID": 32180, "ELEMENT_SET_NO": 999, "REV_AT_EPOCH": 94456, "BSTAR": 0.00010818903, "MEAN_MOTION_DOT": 7.9e-07, "MEAN_MOTION_DDOT": 0}, "tle": {"line1": "1 32180U 99025CUA 25360.36951484  .00000079  00000+0  10819-3 0  9992", "line2": "2 32180  99.5842  40.7221 0136817 174.5748 253.0708 13.82331443944566"}}, "geometry": {"type": "Point", "coordinates": [-144.0588547802815, -29.110420779220583]}}, {"type": "Feature", "properties": {"norad_id": 32181, "name": "FENGYUN 1C DEB", "group": "fengyun-1c-debris", "lat": -48.65677444278761, "lon": 117.61117846674618, "alt_km": 714.3483161463937, "timestamp": "2025-12-26T23:26:42.413313+00:00", "meta": {"OBJECT_NAME": "FENGYUN 1C DEB", "OBJECT_ID": "1999-025CUB", "EPOCH": "2025-12-24T01:34:25.782816", "MEAN_MOTION": 14.56119063, "ECCENTRICITY": 0.00732404, "INCLINATION": 99.4729, "RA_OF_ASC_NODE": 103.3702, "ARG_OF_PERICENTER": 51.7083, "MEAN_ANOMALY": 127.0572, "EPHEMERIS_TYPE": 0, "CLASSIFICATION_TYPE": "U", "NORAD_CAT_ID": 32181, "ELEMENT_SET_NO": 999, "REV_AT_EPOCH": 96885, "BSTAR": 0.00098979645, "MEAN_MOTION_DOT": 4.469e-05, "MEAN_MOTION_DDOT": 0}, "tle": {"line1": "1 32181U 99025CUB 25358.06557619  .00004469  00000+0  98980-3 0  9991", "line2": "2 32181  99.4729 103.3702 0073240  51.7083 127.0572 14.56119063968859"}}, "geometry": {"type": "Point", "coordinates": [117.61117846674618, -48.65677444278761]}}, {"type": "Feature", "properties": {"norad_id": 32183, "name": "FENGYUN 1C DEB", "group": "fengyun-1c-debris", "lat": -68.54370114993702, "lon": 74.69374644635053, "alt_km": 866.5610516032029, "timestamp": "2025-12-26T23:26:42.413322+00:00", "meta": {"OBJECT_NAME": "FENGYUN 1C DEB", "OBJECT_ID": "1999-025CUD", "EPOCH": "2025-12-24T20:41:19.245120", "MEAN_MOTION": 14.10113391, "ECCENTRICITY": 0.0042177, "INCLINATION": 98.7119, "RA_OF_ASC_NODE": 49.6834, "ARG_OF_PERICENTER": 26.6334, "MEAN_ANOMALY": 333.6991, "EPHEMERIS_TYPE": 0, "CLASSIFICATION_TYPE": "U", "NORAD_CAT_ID": 32183, "ELEMENT_SET_NO": 999, "REV_AT_EPOCH": 72935, "BSTAR": 0.00069974, "MEAN_MOTION_DOT": 1.205e-05, "MEAN_MOTION_DDOT": 0}, "tle": {"line1": "1 32183U 99025CUD 25358.86202830  .00001205  00000+0  69974-3 0  9999", "line2": "2 32183  98.7119  49.6834 0042177  26.6334 333.6991 14.10113391729357"}}, "geometry": {"type": "Point", "coordinates": [74.69374644635053, -68.54370114993702]}}, {"type": "Feature", "properties": {"norad_id": 32184, "name": "FENGYUN 1C DEB", "group": "fengyun-1c-debris", "lat": -3.703858809111086, "lon": -38.54901813624138, "alt_km": 450.3518738410694, "timestamp": "2025-12-26T23:26:42.413330+00:00", "meta": {"OBJECT_NAME": "FENGYUN 1C DEB", "OBJECT_ID": "1999-025CUE", "EPOCH": "2025-12-24T08:30:19.606176", "MEAN_MOTION": 15.45603031, "ECCENTRICITY": 0.0068517, "INCLINATION": 98.1191, "RA_OF_ASC_NODE": 139.0466, "ARG_OF_PERICENTER": 306.9817, "MEAN_ANOMALY": 52.517, "EPHEMERIS_TYPE": 0, "CLASSIFICATION_TYPE": "U", "NORAD_CAT_ID": 32184, "ELEMENT_SET_NO": 999, "REV_AT_EPOCH": 98583, "BSTAR": 0.0017036702, "MEAN_MOTION_DOT": 0.00090457, "MEAN_MOTION_DDOT": 0}, "tle": {"line1": "1 32184U 99025CUE 25358.35439359  .00090457  00000+0  17037-2 0  9991", "line2": "2 32184  98.1191 139.0466 0068517 306.9817  52.5170 15.45603031985830"}}, "geometry": {"type": "Point", "coordinates": [-38.54901813624138, -3.703858809111086]}}]}